$$SOE
2459580.500000000, A.D. 2022-Jan-01 00:00:00.0000, -2.495131622216297E+08, -1.477736907663515E+08, 4.525412717021960E+07,
2459587.500000000, A.D. 2022-Jan-08 00:00:00.0000, -2.448392708280006E+08, -1.587287632163384E+08, 4.076096006039532E+07,
2459594.500000000, A.D. 2022-Jan-15 00:00:00.0000, -2.397006969830854E+08, -1.693826101171606E+08, 3.619041312765138E+07,
2459601.500000000, A.D. 2022-Jan-22 00:00:00.0000, -2.341122806323577E+08, -1.797186081955232E+08, 3.155192999777775E+07,
2459608.500000000, A.D. 2022-Jan-29 00:00:00.0000, -2.280893272979383E+08, -1.897210587550376E+08, 2.685486604307058E+07,
2459615.500000000, A.D. 2022-Feb-05 00:00:00.0000, -2.216475619509545E+08, -1.993751749839580E+08, 2.210847570890351E+07,
2459622.500000000, A.D. 2022-Feb-12 00:00:00.0000, -2.148030837478555E+08, -2.086670686204606E+08, 1.732190104126816E+07,
2459629.500000000, A.D. 2022-Feb-19 00:00:00.0000, -2.075723229087100E+08, -2.175837339336443E+08, 1.250416162685844E+07,
2459636.500000000, A.D. 2022-Feb-26 00:00:00.0000, -1.999720009768398E+08, -2.261130300391751E+08, 7.664145902496278E+06,
2459643.500000000, A.D. 2022-Mar-05 00:00:00.0000, -1.920190942078363E+08, -2.342436624373033E+08, 2.810603665308073E+06,
2459650.500000000, A.D. 2022-Mar-12 00:00:00.0000, -1.837307997618324E+08, -2.419651640906220E+08, -2.047860343381032E+06,
2459657.500000000, A.D. 2022-Mar-19 00:00:00.0000, -1.751245045209957E+08, -2.492678762425765E+08, -6.902791883233026E+06,
2459664.500000000, A.D. 2022-Mar-26 00:00:00.0000, -1.662177563990555E+08, -2.561429291799744E+08, -1.174589178736259E+07,
2459671.500000000, A.D. 2022-Apr-02 00:00:00.0000, -1.570282379531313E+08, -2.625822231582975E+08, -1.656901976392044E+07,
2459678.500000000, A.D. 2022-Apr-09 00:00:00.0000, -1.475737418873549E+08, -2.685784096217660E+08, -2.136419753524683E+07,
2459685.500000000, A.D. 2022-Apr-16 00:00:00.0000, -1.378721479397121E+08, -2.741248721912483E+08, -2.612361137066455E+07,
2459692.500000000, A.D. 2022-Apr-23 00:00:00.0000, -1.279414022712069E+08, -2.792157064640691E+08, -3.083961388128008E+07,
2459699.500000000, A.D. 2022-Apr-30 00:00:00.0000, -1.177995010919258E+08, -2.838457009943019E+08, -3.550472516223121E+07,
2459706.500000000, A.D. 2022-May-07 00:00:00.0000, -1.074644753400899E+08, -2.880103215343044E+08, -4.011163379795372E+07,
2459713.500000000, A.D. 2022-May-14 00:00:00.0000, -9.695437490960449E+07, -2.917056955830991E+08, -4.465319767968060E+07,
2459720.500000000, A.D. 2022-May-21 00:00:00.0000, -8.628725433977149E+07, -2.949285965433925E+08, -4.912244445104381E+07,
2459727.500000000, A.D. 2022-May-28 00:00:00.0000, -7.548116032622436E+07, -2.976764284902923E+08, -5.351257167401406E+07,
2459734.500000000, A.D. 2022-Jun-04 00:00:00.0000, -6.455412065677477E+07, -2.999472118965412E+08, -5.781694681713867E+07,
2459741.500000000, A.D. 2022-Jun-11 00:00:00.0000, -5.352413430774868E+07, -3.017395703343915E+08, -6.202910712308547E+07,
2459748.500000000, A.D. 2022-Jun-18 00:00:00.0000, -4.240916254090419E+07, -3.030527181599697E+08, -6.614275939689150E+07,
2459755.500000000, A.D. 2022-Jun-25 00:00:00.0000, -3.122712085232768E+07, -3.038864492341971E+08, -7.015177975776227E+07,
2459762.500000000, A.D. 2022-Jul-02 00:00:00.0000, -1.999587152584103E+07, -3.042411267669880E+08, -7.405021341021264E+07,
2459769.500000000, A.D. 2022-Jul-09 00:00:00.0000, -8.733216293781733E+06, -3.041176741252603E+08, -7.783227449523169E+07,
2459776.500000000, A.D. 2022-Jul-16 00:00:00.0000, 2.543110939758477E+06, -3.035175655334160E+08, -8.149234596740776E+07,
2459783.500000000, A.D. 2022-Jul-23 00:00:00.0000, 1.381544920920528E+07, -3.024428165910120E+08, -8.502497932696415E+07,
2459790.500000000, A.D. 2022-Jul-30 00:00:00.0000, 2.506621360777341E+07, -3.008959779552617E+08, -8.842489452142224E+07,
2459797.500000000, A.D. 2022-Aug-06 00:00:00.0000, 3.627790010834452E+07, -2.988801315317577E+08, -9.168698032469143E+07,
2459804.500000000, A.D. 2022-Aug-13 00:00:00.0000, 4.743309135104179E+07, -2.963988864091223E+08, -9.480629492176089E+07,
2459811.500000000, A.D. 2022-Aug-20 00:00:00.0000, 5.851446191567390E+07, -2.934563750264401E+08, -9.777806662225848E+07,
2459818.500000000, A.D. 2022-Aug-27 00:00:00.0000, 6.950478323417294E+07, -2.900572502817875E+08, -1.005976947927223E+08,
2459825.500000000, A.D. 2022-Sep-03 00:00:00.0000, 8.038692847683525E+07, -2.862066836716737E+08, -1.032607510624499E+08,
2459832.500000000, A.D. 2022-Sep-10 00:00:00.0000, 9.114387758681431E+07, -2.819103644134270E+08, -1.057629808307220E+08,
2459839.500000000, A.D. 2022-Sep-17 00:00:00.0000, 1.017587225766734E+08, -2.771744995237092E+08, -1.081003050978449E+08,
2459846.500000000, A.D. 2022-Sep-24 00:00:00.0000, 1.122146732342413E+08, -2.720058148726172E+08, -1.102688226492196E+08,
2459853.500000000, A.D. 2022-Oct-01 00:00:00.0000, 1.224950635658103E+08, -2.664115572044734E+08, -1.122648126377328E+08,
2459860.500000000, A.D. 2022-Oct-08 00:00:00.0000, 1.325833594700504E+08, -2.603994965713375E+08, -1.140847375812356E+08,
2459867.500000000, A.D. 2022-Oct-15 00:00:00.0000, 1.424631667946588E+08, -2.539779279434591E+08, -1.157252466115696E+08,
2459874.500000000, A.D. 2022-Oct-22 00:00:00.0000, 1.521182376775469E+08, -2.471556736358259E+08, -1.171831789289680E+08,
2459881.500000000, A.D. 2022-Oct-29 00:00:00.0000, 1.615324777565620E+08, -2.399420890917037E+08, -1.184555679170882E+08,
2459888.500000000, A.D. 2022-Nov-05 00:00:00.0000, 1.706899564372358E+08, -2.323470692271267E+08, -1.195396459029220E+08,
2459895.500000000, A.D. 2022-Nov-12 00:00:00.0000, 1.795749183445650E+08, -2.243810540117019E+08, -1.204328492940395E+08,
2459902.500000000, A.D. 2022-Nov-19 00:00:00.0000, 1.881717953300313E+08, -2.160550341756135E+08, -1.211328241195041E+08,
2459909.500000000, A.D. 2022-Nov-26 00:00:00.0000, 1.964652193877152E+08, -2.073805573681664E+08, -1.216374320435684E+08,
2459916.500000000, A.D. 2022-Dec-03 00:00:00.0000, 2.044400367385629E+08, -1.983697347000246E+08, -1.219447568797575E+08,
2459923.500000000, A.D. 2022-Dec-10 00:00:00.0000, 2.120813232219512E+08, -1.890352475638525E+08, -1.220531116182056E+08,
2459930.500000000, A.D. 2022-Dec-17 00:00:00.0000, 2.193744011115625E+08, -1.793903546637559E+08, -1.219610459781631E+08,
2459937.500000000, A.D. 2022-Dec-24 00:00:00.0000, 2.263048575548435E+08, -1.694488992140249E+08, -1.216673545038501E+08,
2459944.500000000, A.D. 2022-Dec-31 00:00:00.0000, 2.328585650836854E+08, -1.592253160820347E+08, -1.211710852261559E+08,
2459951.500000000, A.D. 2023-Jan-07 00:00:00.0000, 2.390217044098687E+08, -1.487346377868761E+08, -1.204715488190053E+08,
2459958.500000000, A.D. 2023-Jan-14 00:00:00.0000, 2.447807876236003E+08, -1.379924987214984E+08, -1.195683280186016E+08,
2459965.500000000, A.D. 2023-Jan-21 00:00:00.0000, 2.501226812279599E+08, -1.270151406141710E+08, -1.184612874833044E+08,
2459972.500000000, A.D. 2023-Jan-28 00:00:00.0000, 2.550346327552818E+08, -1.158194192435002E+08, -1.171505844209770E+08,
2459979.500000000, A.D. 2023-Feb-04 00:00:00.0000, 2.595043008385372E+08, -1.044228091868391E+08, -1.156366796978380E+08,
2459986.500000000, A.D. 2023-Feb-11 00:00:00.0000, 2.635197870175894E+08, -9.284340659848398E+07, -1.139203492608040E+08,
2459993.500000000, A.D. 2023-Feb-18 00:00:00.0000, 2.670696692775090E+08, -8.109993063326861E+07, -1.120026959055535E+08,
2460000.500000000, A.D. 2023-Feb-25 00:00:00.0000, 2.701430376262937E+08, -6.921172345291896E+07, -1.098851613843613E+08,
2460007.500000000, A.D. 2023-Mar-04 00:00:00.0000, 2.727295318433519E+08, -5.719874855212495E+07, -1.075695388051652E+08,
2460014.500000000, A.D. 2023-Mar-11 00:00:00.0000, 2.748193814406704E+08, -4.508158714022114E+07, -1.050579852570246E+08,
2460021.500000000, A.D. 2023-Mar-18 00:00:00.0000, 2.764034478787628E+08, -3.288143234766398E+07, -1.023530345926869E+08,
2460028.500000000, A.D. 2023-Mar-25 00:00:00.0000, 2.774732692112530E+08, -2.062008101049885E+07, -9.945761030056919E+07,
2460035.500000000, A.D. 2023-Apr-01 00:00:00.0000, 2.780211075209782E+08, -8.319922328215018E+06, -9.637503836608517E+07,
2460042.500000000, A.D. 2023-Apr-08 00:00:00.0000, 2.780399984453145E+08, 3.996078163051754E+06, -9.310905984805053E+07,
2460049.500000000, A.D. 2023-Apr-15 00:00:00.0000, 2.775238003475807E+08, 1.630439853343603E+07, -8.966384292419451E+07,
2460056.500000000, A.D. 2023-Apr-22 00:00:00.0000, 2.764672447921612E+08, 2.858098160082154E+07, -8.604399467967522E+07,
2460063.500000000, A.D. 2023-Apr-29 00:00:00.0000, 2.748659908532400E+08, 4.080125986965656E+07, -8.225457254077348E+07,
2460070.500000000, A.D. 2023-May-06 00:00:00.0000, 2.727166812511423E+08, 5.294018639977865E+07, -7.830109486959840E+07,
2460077.500000000, A.D. 2023-May-13 00:00:00.0000, 2.700169990487850E+08, 6.497227105660354E+07, -7.418955051330572E+07,
2460084.500000000, A.D. 2023-May-20 00:00:00.0000, 2.667657247983681E+08, 7.687162198457541E+07, -6.992640716419826E+07,
2460091.500000000, A.D. 2023-May-27 00:00:00.0000, 2.629627939308392E+08, 8.861199258997504E+07, -6.551861833077987E+07,
2460098.500000000, A.D. 2023-Jun-03 00:00:00.0000, 2.586093539856982E+08, 1.001668343497480E+08, -6.097362868949492E+07,
2460105.500000000, A.D. 2023-Jun-10 00:00:00.0000, 2.537078211844349E+08, 1.115093556901292E+08, -5.629937757562218E+07,
2460112.500000000, A.D. 2023-Jun-17 00:00:00.0000, 2.482619358560967E+08, 1.226125870904419E+08, -5.150430037285204E+07,
2460119.500000000, A.D. 2023-Jun-24 00:00:00.0000, 2.422768163967918E+08, 1.334494526287053E+08, -4.659732756731020E+07,
2460126.500000000, A.D. 2023-Jul-01 00:00:00.0000, 2.357590113142602E+08, 1.439928488848981E+08, -4.158788115733195E+07,
2460133.500000000, A.D. 2023-Jul-08 00:00:00.0000, 2.287165469074785E+08, 1.542157320397148E+08, -3.648586793047754E+07,
2460140.500000000, A.D. 2023-Jul-15 00:00:00.0000, 2.211589684958556E+08, 1.640912102911074E+08, -3.130166946775107E+07,
$$EOE